ACS3                    
1 59588U 24077B   24287.56612853  .00001144  00000+0  13061-2 0  9996
2 59588  97.4535 328.3981 0049220 179.2691 180.8542 13.70816189 23597
